GLOBALSTAR M024         
1 25883U 99043A   25019.89036025 -.00000053  00000+0  41893-3 0  9997
2 25883  52.0060 355.2319 0001278 209.3650 170.2109 11.10166423 98396
GLOBALSTAR M027         
1 25884U 99043B   25019.42205056 -.00000084  00000+0 -75917-3 0  9998
2 25884  52.0222  70.0547 0021799 112.2249 248.0859 11.04370847124800
GLOBALSTAR M054         
1 25885U 99043C   25019.94983458 -.00000067  00000+0  10860-3 0  9991
2 25885  52.0100 221.0578 0004624 289.3765 215.6858 11.39215884102155
GLOBALSTAR M053         
1 25886U 99043D   25019.69601535 -.00000061  00000+0  22670-3 0  9993
2 25886  51.9959 160.5187 0003851 169.7957 290.8524 11.27662465102696
GLOBALSTAR M058         
1 25907U 99049A   25020.53761323  .00000044  00000+0  17335-2 0  9991
2 25907  51.9929 143.4366 0001575  28.7441 331.3480 11.93193576135120
GLOBALSTAR M050         
1 25908U 99049B   25019.80969101  .00000030  00000+0  13305-2 0  9992
2 25908  51.9969 164.1406 0010267  97.4155  58.3974 12.07447790130263
GLOBALSTAR M033         
1 25909U 99049C   25020.09362248 -.00000169  00000+0 -74379-3 0  9999
2 25909  51.9927  45.4222 0012780 318.3610  41.6263 12.20292025150383
GLOBALSTAR M055         
1 25910U 99049D   25020.45218355 -.00000062  00000+0  27183-3 0  9992
2 25910  52.0028  62.3540 0007349 182.6809 177.4004 12.29419246150338
